ONEWEB-0624             
1 55165U 23004AB  23286.45082582 -.00003940  00000+0 -10992-1 0  9995
2 55165  87.9020 184.9845 0002981  79.8144 280.3321 13.12440188 39803
ONEWEB-0625             
1 55166U 23004AC  23286.48083849  .00000041  00000+0  72503-4 0  9992
2 55166  87.9237 200.1993 0002181  77.3685 282.7690 13.17647315 38826
ONEWEB-0627             
1 55168U 23004AE  23286.46183500  .00000079  00000+0  16953-3 0  9994
2 55168  87.9235 200.2079 0001488 102.5090 257.6208 13.17648799 38825
ONEWEB-0628             
1 55169U 23004AF  23286.43192149 -.00000227  00000+0 -66699-3 0  9990
2 55169  87.8991 185.0749 0001881  92.7706 267.3637 13.12438833 39780
ONEWEB-0629             
1 55170U 23004AG  23286.53145501  .00000043  00000+0  78015-4 0  9993
2 55170  87.9252 200.1781 0002218  88.9806 271.1580 13.17650835 38839
ONEWEB-0709             
1 55172U 23004AJ  23286.53631812 -.00000349  00000+0 -10202-2 0  9993
2 55172  87.9006 215.3143 0001286  50.6174 309.5068 13.11422583 37732
